IRIDIUM 156             
1 43576U 18061H   26165.18715726  .00000219  00000+0  71224-4 0  9999
2 43576  86.3961  57.9839 0002064  81.1421 279.0008 14.34218058412942
IRIDIUM 164             
1 43577U 18061J   26165.16813035  .00000083  00000+0  22589-4 0  9999
2 43577  86.3964  58.0322 0002105  88.7647 271.3790 14.34217902412988
IRIDIUM 159             
1 43578U 18061K   26165.20618605  .00000126  00000+0  38001-4 0  9995
2 43578  86.3961  57.9531 0002281  83.9822 276.1634 14.34217868412951
IRIDIUM 180             
1 43922U 19002A   26165.06614495  .00000007  00000+0 -47315-5 0  9999
2 43922  86.3968 354.9025 0002159  89.2693 270.8750 14.34217498388544
IRIDIUM 176             
1 43923U 19002B   26164.96447911  .00000724  00000+0  11094-3 0  9993
2 43923  86.6091 354.8891 0002255  92.2049 267.9427 14.72263291398779
IRIDIUM 168             
1 43924U 19002C   26165.05980219  .00000064  00000+0  15711-4 0  9996
2 43924  86.3973 354.9825 0002167  88.8617 271.2827 14.34218108388527
IRIDIUM 173             
1 43925U 19002D   26164.97734924  .00000040  00000+0  71553-5 0  9998
2 43925  86.3968 354.9057 0002208  86.9303 273.2145 14.34217362388498
IRIDIUM 169             
1 43926U 19002E   26165.12223447  .00000263  00000+0  79632-4 0  9992
2 43926  86.4226  26.4749 0001962  71.4659 288.6753 14.38607740389780
IRIDIUM 172             
1 43927U 19002F   26164.97100559  .00000123  00000+0  37023-4 0  9996
2 43927  86.3969 354.9165 0002258  88.9251 271.2204 14.34217455388509
IRIDIUM 175             
1 43928U 19002G   26165.08735697  .00000279  00000+0  76464-4 0  9991
2 43928  86.4510 291.8169 0002096 189.6020 170.5142 14.43611157398532
IRIDIUM 171             
1 43929U 19002H   26164.95197819 -.00000169  00000+0 -67339-4 0  9996
2 43929  86.3976 355.2304 0001890  88.1139 272.0273 14.34216431388492
IRIDIUM 170             
1 43930U 19002J   26164.97066080  .00000728  00000+0  11146-3 0  9998
2 43930  86.6091 354.8890 0002357  88.5814 271.5673 14.72263767398780
IRIDIUM 167             
1 43931U 19002K   26165.01540338  .00000014  00000+0 -21879-5 0  9993
2 43931  86.3967 354.9202 0001746  89.2116 270.9280 14.34217648388503
IRIDIUM 181             
1 56726U 23068S   26164.77864425  .00000285  00000+0  78538-4 0  9996
2 56726  86.4501  58.2155 0002345  89.1984 270.9485 14.43312920161946
IRIDIUM 177             
1 56727U 23068T   26164.94249353  .00001023  00000+0  13114-3 0  9992
2 56727  86.1959 330.3328 0002390  87.2912 272.8583 14.80224944165883
IRIDIUM 174             
1 56728U 23068U   26164.95831613  .00000747  00000+0  11459-3 0  9992
2 56728  86.6098 355.0412 0002502  84.4375 275.7127 14.72260000165541
IRIDIUM 178             
1 56729U 23068V   26165.13443108  .00000910  00000+0  11638-3 0  9993
2 56729  86.6540  26.6361 0002658  86.7142 273.4383 14.80229194165915
IRIDIUM 179             
1 56730U 23068W   26165.12903485  .00000654  00000+0  82600-4 0  9996
2 56730  86.6782  35.6093 0002449  88.8685 271.2817 14.80232418165911
