OBJECT_NAME,OBJECT_ID,EPOCH,MEAN_MOTION,ECCENTRICITY,INCLINATION,RA_OF_ASC_NODE,ARG_OF_PERICENTER,MEAN_ANOMALY,EPHEMERIS_TYPE,CLASSIFICATION_TYPE,NORAD_CAT_ID,ELEMENT_SET_NO,REV_AT_EPOCH,BSTAR,MEAN_MOTION_DOT,MEAN_MOTION_DDOT
IRIDIUM 156,2018-061H,2026-06-14T04:29:30.387264,14.34218058,.0002064,86.3961,57.9839,81.1421,279.0008,0,U,43576,999,41294,.71224E-4,.219E-5,0
IRIDIUM 164,2018-061J,2026-06-14T04:02:06.462240,14.34217902,.0002105,86.3964,58.0322,88.7647,271.3790,0,U,43577,999,41298,.22589E-4,.83E-6,0
IRIDIUM 159,2018-061K,2026-06-14T04:56:54.474720,14.34217868,.0002281,86.3961,57.9531,83.9822,276.1634,0,U,43578,999,41295,.38001E-4,.126E-5,0
IRIDIUM 180,2019-002A,2026-06-14T01:35:14.923680,14.34217498,.0002159,86.3968,354.9025,89.2693,270.8750,0,U,43922,999,38854,-.47315E-5,.7E-7,0
IRIDIUM 176,2019-002B,2026-06-13T23:08:50.995104,14.72263291,.0002255,86.6091,354.8891,92.2049,267.9427,0,U,43923,999,39877,.11094E-3,.724E-5,0
IRIDIUM 168,2019-002C,2026-06-14T01:26:06.909216,14.34218108,.0002167,86.3973,354.9825,88.8617,271.2827,0,U,43924,999,38852,.15711E-4,.64E-6,0
IRIDIUM 173,2019-002D,2026-06-13T23:27:22.974336,14.34217362,.0002208,86.3968,354.9057,86.9303,273.2145,0,U,43925,999,38849,.71553E-5,.4E-6,0
IRIDIUM 169,2019-002E,2026-06-14T02:56:01.058208,14.38607740,.0001962,86.4226,26.4749,71.4659,288.6753,0,U,43926,999,38978,.79632E-4,.263E-5,0
IRIDIUM 172,2019-002F,2026-06-13T23:18:14.882976,14.34217455,.0002258,86.3969,354.9165,88.9251,271.2204,0,U,43927,999,38850,.37023E-4,.123E-5,0
IRIDIUM 175,2019-002G,2026-06-14T02:05:47.642208,14.43611157,.0002096,86.4510,291.8169,189.6020,170.5142,0,U,43928,999,39853,.76464E-4,.279E-5,0
IRIDIUM 171,2019-002H,2026-06-13T22:50:50.915616,14.34216431,.000189,86.3976,355.2304,88.1139,272.0273,0,U,43929,999,38849,-.67339E-4,-.169E-5,0
IRIDIUM 170,2019-002J,2026-06-13T23:17:45.093120,14.72263767,.0002357,86.6091,354.8890,88.5814,271.5673,0,U,43930,999,39878,.11146E-3,.728E-5,0
IRIDIUM 167,2019-002K,2026-06-14T00:22:10.852032,14.34217648,.0001746,86.3967,354.9202,89.2116,270.9280,0,U,43931,999,38850,-.21879E-5,.14E-6,0
IRIDIUM 181,2023-068S,2026-06-13T18:41:14.863200,14.43312920,.00023456,86.4501,58.2155,89.1984,270.9485,0,U,56726,999,16194,.78537503E-4,.285E-5,0
IRIDIUM 177,2023-068T,2026-06-13T22:37:11.440992,14.80224944,.000239,86.1959,330.3328,87.2912,272.8583,0,U,56727,999,16588,.13114E-3,.1023E-4,0
IRIDIUM 174,2023-068U,2026-06-13T22:59:58.513632,14.72260000,.0002502,86.6098,355.0412,84.4375,275.7127,0,U,56728,999,16554,.11459E-3,.747E-5,0
IRIDIUM 178,2023-068V,2026-06-14T03:13:34.845312,14.80229194,.0002658,86.6540,26.6361,86.7142,273.4383,0,U,56729,999,16591,.11638E-3,.91E-5,0
IRIDIUM 179,2023-068W,2026-06-14T03:05:48.611040,14.80232418,.0002449,86.6782,35.6093,88.8685,271.2817,0,U,56730,999,16591,.826E-4,.654E-5,0
